ISS (ZARYA)             
1 25544U 98067A   25299.71634698  .00015600  00000+0  28569-3 0  9995
2 25544  51.6344  15.2829 0004606 341.7148  18.3675 15.49497961535565
CSS (TIANHE)            
1 48274U 21035A   25299.71160602  .00033701  00000+0  39545-3 0  9998
2 48274  41.4668 302.3888 0010993 287.9770  71.9871 15.60714252256683
ISS (NAUKA)             
1 49044U 21066A   25299.20038895  .00014735  00000+0  27050-3 0  9994
2 49044  51.6346  17.8374 0004635 339.5768  20.5035 15.49479093230446
FREGAT DEB              
1 49271U 11037PF  25299.51915741 -.00000344  00000+0 -49000-3 0  9993
2 49271  51.6279 339.0543 0895484 121.8630 247.2547 12.33752134196100
CSS (WENTIAN)           
1 53239U 22085A   25299.26367382  .00033351  00000+0  39189-3 0  9990
2 53239  41.4668 305.1146 0011051 285.4259  74.5358 15.60681354173840
CSS (MENGTIAN)          
1 54216U 22143A   25299.26367382  .00033351  00000+0  39189-3 0  9991
2 54216  41.4668 305.1146 0011051 285.4259  74.5358 15.60681354158647
SOYUZ-MS 27             
1 63520U 25072A   25299.20038895  .00014735  00000+0  27050-3 0  9990
2 63520  51.6346  17.8374 0004635 339.5768  20.5035 15.49479093 20202
SHENZHOU-20 (SZ-20)     
1 63632U 25082A   25299.26367382  .00033351  00000+0  39189-3 0  9998
2 63632  41.4668 305.1146 0011051 285.4259  74.5358 15.60681354255300
PROGRESS-MS 31          
1 64751U 25146A   25299.20038895  .00014735  00000+0  27050-3 0  9999
2 64751  51.6346  17.8374 0004635 339.5768  20.5035 15.49479093  6753
TIANZHOU-9              
1 64786U 25149A   25299.26367382  .00033351  00000+0  39189-3 0  9993
2 64786  41.4668 305.1146 0011051 285.4259  74.5358 15.60681354255301
CREW DRAGON 11          
1 65077U 25166A   25299.20038895  .00014735  00000+0  27050-3 0  9993
2 65077  51.6346  17.8374 0004635 339.5768  20.5035 15.49479093  2144
DRAGON CRS-33           
1 65304U 25186A   25299.20038895  .00014735  00000+0  27050-3 0  9998
2 65304  51.6346  17.8374 0004635 339.5768  20.5035 15.49479093   112
