CCSDS_OMM_VERS = 2.0
CREATION_DATE  = 
ORIGINATOR     = 

OBJECT_NAME    = ISS (ZARYA)
OBJECT_ID      = 1998-067A
CENTER_NAME    = EARTH
REF_FRAME      = TEME
TIME_SYSTEM    = UTC
MEAN_ELEMENT_THEORY = SGP/SGP4

EPOCH          = 2025-10-26T17:11:32.379072
MEAN_MOTION    = 15.49497961
ECCENTRICITY   = .0004606
INCLINATION    = 51.6344
RA_OF_ASC_NODE = 15.2829
ARG_OF_PERICENTER = 341.7148
MEAN_ANOMALY   = 18.3675

EPHEMERIS_TYPE = 0
CLASSIFICATION_TYPE = U
NORAD_CAT_ID   = 25544
ELEMENT_SET_NO = 999
REV_AT_EPOCH   = 53556
BSTAR          = .28569E-3
MEAN_MOTION_DOT = .156E-3
MEAN_MOTION_DDOT = 0

CCSDS_OMM_VERS = 2.0
CREATION_DATE  = 
ORIGINATOR     = 

OBJECT_NAME    = CSS (TIANHE)
OBJECT_ID      = 2021-035A
CENTER_NAME    = EARTH
REF_FRAME      = TEME
TIME_SYSTEM    = UTC
MEAN_ELEMENT_THEORY = SGP/SGP4

EPOCH          = 2025-10-26T17:04:42.760128
MEAN_MOTION    = 15.60714252
ECCENTRICITY   = .0010993
INCLINATION    = 41.4668
RA_OF_ASC_NODE = 302.3888
ARG_OF_PERICENTER = 287.9770
MEAN_ANOMALY   = 71.9871

EPHEMERIS_TYPE = 0
CLASSIFICATION_TYPE = U
NORAD_CAT_ID   = 48274
ELEMENT_SET_NO = 999
REV_AT_EPOCH   = 25668
BSTAR          = .39545E-3
MEAN_MOTION_DOT = .33701E-3
MEAN_MOTION_DDOT = 0

CCSDS_OMM_VERS = 2.0
CREATION_DATE  = 
ORIGINATOR     = 

OBJECT_NAME    = ISS (NAUKA)
OBJECT_ID      = 2021-066A
CENTER_NAME    = EARTH
REF_FRAME      = TEME
TIME_SYSTEM    = UTC
MEAN_ELEMENT_THEORY = SGP/SGP4

EPOCH          = 2025-10-26T04:48:33.605280
MEAN_MOTION    = 15.49479093
ECCENTRICITY   = .00046358
INCLINATION    = 51.6346
RA_OF_ASC_NODE = 17.8374
ARG_OF_PERICENTER = 339.5768
MEAN_ANOMALY   = 20.5035

EPHEMERIS_TYPE = 0
CLASSIFICATION_TYPE = U
NORAD_CAT_ID   = 49044
ELEMENT_SET_NO = 999
REV_AT_EPOCH   = 23044
BSTAR          = .27050386E-3
MEAN_MOTION_DOT = .14735E-3
MEAN_MOTION_DDOT = 0

CCSDS_OMM_VERS = 2.0
CREATION_DATE  = 
ORIGINATOR     = 

OBJECT_NAME    = FREGAT DEB
OBJECT_ID      = 2011-037PF
CENTER_NAME    = EARTH
REF_FRAME      = TEME
TIME_SYSTEM    = UTC
MEAN_ELEMENT_THEORY = SGP/SGP4

EPOCH          = 2025-10-26T12:27:35.200224
MEAN_MOTION    = 12.33752134
ECCENTRICITY   = .0895484
INCLINATION    = 51.6279
RA_OF_ASC_NODE = 339.0543
ARG_OF_PERICENTER = 121.8630
MEAN_ANOMALY   = 247.2547

EPHEMERIS_TYPE = 0
CLASSIFICATION_TYPE = U
NORAD_CAT_ID   = 49271
ELEMENT_SET_NO = 999
REV_AT_EPOCH   = 19610
BSTAR          = -.49E-3
MEAN_MOTION_DOT = -.344E-5
MEAN_MOTION_DDOT = 0

CCSDS_OMM_VERS = 2.0
CREATION_DATE  = 
ORIGINATOR     = 

OBJECT_NAME    = CSS (WENTIAN)
OBJECT_ID      = 2022-085A
CENTER_NAME    = EARTH
REF_FRAME      = TEME
TIME_SYSTEM    = UTC
MEAN_ELEMENT_THEORY = SGP/SGP4

EPOCH          = 2025-10-26T06:19:41.418048
MEAN_MOTION    = 15.60681354
ECCENTRICITY   = .00110514
INCLINATION    = 41.4668
RA_OF_ASC_NODE = 305.1146
ARG_OF_PERICENTER = 285.4259
MEAN_ANOMALY   = 74.5358

EPHEMERIS_TYPE = 0
CLASSIFICATION_TYPE = U
NORAD_CAT_ID   = 53239
ELEMENT_SET_NO = 999
REV_AT_EPOCH   = 17384
BSTAR          = .39188574E-3
MEAN_MOTION_DOT = .33351E-3
MEAN_MOTION_DDOT = 0

CCSDS_OMM_VERS = 2.0
CREATION_DATE  = 
ORIGINATOR     = 

OBJECT_NAME    = CSS (MENGTIAN)
OBJECT_ID      = 2022-143A
CENTER_NAME    = EARTH
REF_FRAME      = TEME
TIME_SYSTEM    = UTC
MEAN_ELEMENT_THEORY = SGP/SGP4

EPOCH          = 2025-10-26T06:19:41.418048
MEAN_MOTION    = 15.60681354
ECCENTRICITY   = .00110514
INCLINATION    = 41.4668
RA_OF_ASC_NODE = 305.1146
ARG_OF_PERICENTER = 285.4259
MEAN_ANOMALY   = 74.5358

EPHEMERIS_TYPE = 0
CLASSIFICATION_TYPE = U
NORAD_CAT_ID   = 54216
ELEMENT_SET_NO = 999
REV_AT_EPOCH   = 15864
BSTAR          = .39188574E-3
MEAN_MOTION_DOT = .33351E-3
MEAN_MOTION_DDOT = 0

CCSDS_OMM_VERS = 2.0
CREATION_DATE  = 
ORIGINATOR     = 

OBJECT_NAME    = SOYUZ-MS 27
OBJECT_ID      = 2025-072A
CENTER_NAME    = EARTH
REF_FRAME      = TEME
TIME_SYSTEM    = UTC
MEAN_ELEMENT_THEORY = SGP/SGP4

EPOCH          = 2025-10-26T04:48:33.605280
MEAN_MOTION    = 15.49479093
ECCENTRICITY   = .00046358
INCLINATION    = 51.6346
RA_OF_ASC_NODE = 17.8374
ARG_OF_PERICENTER = 339.5768
MEAN_ANOMALY   = 20.5035

EPHEMERIS_TYPE = 0
CLASSIFICATION_TYPE = U
NORAD_CAT_ID   = 63520
ELEMENT_SET_NO = 999
REV_AT_EPOCH   = 2020
BSTAR          = .27050386E-3
MEAN_MOTION_DOT = .14735E-3
MEAN_MOTION_DDOT = 0

CCSDS_OMM_VERS = 2.0
CREATION_DATE  = 
ORIGINATOR     = 

OBJECT_NAME    = SHENZHOU-20 (SZ-20)
OBJECT_ID      = 2025-082A
CENTER_NAME    = EARTH
REF_FRAME      = TEME
TIME_SYSTEM    = UTC
MEAN_ELEMENT_THEORY = SGP/SGP4

EPOCH          = 2025-10-26T06:19:41.418048
MEAN_MOTION    = 15.60681354
ECCENTRICITY   = .00110514
INCLINATION    = 41.4668
RA_OF_ASC_NODE = 305.1146
ARG_OF_PERICENTER = 285.4259
MEAN_ANOMALY   = 74.5358

EPHEMERIS_TYPE = 0
CLASSIFICATION_TYPE = U
NORAD_CAT_ID   = 63632
ELEMENT_SET_NO = 999
REV_AT_EPOCH   = 25530
BSTAR          = .39188574E-3
MEAN_MOTION_DOT = .33351E-3
MEAN_MOTION_DDOT = 0

CCSDS_OMM_VERS = 2.0
CREATION_DATE  = 
ORIGINATOR     = 

OBJECT_NAME    = PROGRESS-MS 31
OBJECT_ID      = 2025-146A
CENTER_NAME    = EARTH
REF_FRAME      = TEME
TIME_SYSTEM    = UTC
MEAN_ELEMENT_THEORY = SGP/SGP4

EPOCH          = 2025-10-26T04:48:33.605280
MEAN_MOTION    = 15.49479093
ECCENTRICITY   = .00046358
INCLINATION    = 51.6346
RA_OF_ASC_NODE = 17.8374
ARG_OF_PERICENTER = 339.5768
MEAN_ANOMALY   = 20.5035

EPHEMERIS_TYPE = 0
CLASSIFICATION_TYPE = U
NORAD_CAT_ID   = 64751
ELEMENT_SET_NO = 999
REV_AT_EPOCH   = 675
BSTAR          = .27050386E-3
MEAN_MOTION_DOT = .14735E-3
MEAN_MOTION_DDOT = 0

CCSDS_OMM_VERS = 2.0
CREATION_DATE  = 
ORIGINATOR     = 

OBJECT_NAME    = TIANZHOU-9
OBJECT_ID      = 2025-149A
CENTER_NAME    = EARTH
REF_FRAME      = TEME
TIME_SYSTEM    = UTC
MEAN_ELEMENT_THEORY = SGP/SGP4

EPOCH          = 2025-10-26T06:19:41.418048
MEAN_MOTION    = 15.60681354
ECCENTRICITY   = .00110514
INCLINATION    = 41.4668
RA_OF_ASC_NODE = 305.1146
ARG_OF_PERICENTER = 285.4259
MEAN_ANOMALY   = 74.5358

EPHEMERIS_TYPE = 0
CLASSIFICATION_TYPE = U
NORAD_CAT_ID   = 64786
ELEMENT_SET_NO = 999
REV_AT_EPOCH   = 25530
BSTAR          = .39188574E-3
MEAN_MOTION_DOT = .33351E-3
MEAN_MOTION_DDOT = 0

CCSDS_OMM_VERS = 2.0
CREATION_DATE  = 
ORIGINATOR     = 

OBJECT_NAME    = CREW DRAGON 11
OBJECT_ID      = 2025-166A
CENTER_NAME    = EARTH
REF_FRAME      = TEME
TIME_SYSTEM    = UTC
MEAN_ELEMENT_THEORY = SGP/SGP4

EPOCH          = 2025-10-26T04:48:33.605280
MEAN_MOTION    = 15.49479093
ECCENTRICITY   = .00046358
INCLINATION    = 51.6346
RA_OF_ASC_NODE = 17.8374
ARG_OF_PERICENTER = 339.5768
MEAN_ANOMALY   = 20.5035

EPHEMERIS_TYPE = 0
CLASSIFICATION_TYPE = U
NORAD_CAT_ID   = 65077
ELEMENT_SET_NO = 999
REV_AT_EPOCH   = 214
BSTAR          = .27050386E-3
MEAN_MOTION_DOT = .14735E-3
MEAN_MOTION_DDOT = 0

CCSDS_OMM_VERS = 2.0
CREATION_DATE  = 
ORIGINATOR     = 

OBJECT_NAME    = DRAGON CRS-33
OBJECT_ID      = 2025-186A
CENTER_NAME    = EARTH
REF_FRAME      = TEME
TIME_SYSTEM    = UTC
MEAN_ELEMENT_THEORY = SGP/SGP4

EPOCH          = 2025-10-26T04:48:33.605280
MEAN_MOTION    = 15.49479093
ECCENTRICITY   = .00046358
INCLINATION    = 51.6346
RA_OF_ASC_NODE = 17.8374
ARG_OF_PERICENTER = 339.5768
MEAN_ANOMALY   = 20.5035

EPHEMERIS_TYPE = 0
CLASSIFICATION_TYPE = U
NORAD_CAT_ID   = 65304
ELEMENT_SET_NO = 999
REV_AT_EPOCH   = 11
BSTAR          = .27050386E-3
MEAN_MOTION_DOT = .14735E-3
MEAN_MOTION_DDOT = 0

